[{"OBJECT_NAME":"ZHONGXING-6E","OBJECT_ID":"2023-172A","EPOCH":"2026-03-02T18:05:11.159232","MEAN_MOTION":1.00269118,"ECCENTRICITY":0.0002538,"INCLINATION":0.0162,"RA_OF_ASC_NODE":113.4325,"ARG_OF_PERICENTER":237.5648,"MEAN_ANOMALY":196.3332,"EPHEMERIS_TYPE":0,"CLASSIFICATION_TYPE":"U","NORAD_CAT_ID":58253,"ELEMENT_SET_NO":999,"REV_AT_EPOCH":859,"BSTAR":0,"MEAN_MOTION_DOT":-3.78e-6,"MEAN_MOTION_DDOT":0},{"OBJECT_NAME":"YAOGAN-41","OBJECT_ID":"2023-197A","EPOCH":"2026-03-02T19:50:12.039936","MEAN_MOTION":1.00275905,"ECCENTRICITY":0.0010433,"INCLINATION":3.3256,"RA_OF_ASC_NODE":311.572,"ARG_OF_PERICENTER":181.9207,"MEAN_ANOMALY":87.8328,"EPHEMERIS_TYPE":0,"CLASSIFICATION_TYPE":"U","NORAD_CAT_ID":58582,"ELEMENT_SET_NO":999,"REV_AT_EPOCH":825,"BSTAR":0,"MEAN_MOTION_DOT":-3.79e-6,"MEAN_MOTION_DDOT":0},{"OBJECT_NAME":"ARKTIKA-M 2","OBJECT_ID":"2023-198A","EPOCH":"2026-03-02T02:03:24.321024","MEAN_MOTION":2.00614887,"ECCENTRICITY":0.68767689,"INCLINATION":63.22,"RA_OF_ASC_NODE":166.2306,"ARG_OF_PERICENTER":267.7889,"MEAN_ANOMALY":18.8403,"EPHEMERIS_TYPE":0,"CLASSIFICATION_TYPE":"U","NORAD_CAT_ID":58584,"ELEMENT_SET_NO":999,"REV_AT_EPOCH":1617,"BSTAR":0,"MEAN_MOTION_DOT":1.31e-6,"MEAN_MOTION_DDOT":0},{"OBJECT_NAME":"FREGAT R/B","OBJECT_ID":"2023-198B","EPOCH":"2026-03-02T06:11:34.603296","MEAN_MOTION":1.99035375,"ECCENTRICITY":0.6923359,"INCLINATION":63.2368,"RA_OF_ASC_NODE":165.9088,"ARG_OF_PERICENTER":266.7694,"MEAN_ANOMALY":18.8495,"EPHEMERIS_TYPE":0,"CLASSIFICATION_TYPE":"U","NORAD_CAT_ID":58585,"ELEMENT_SET_NO":999,"REV_AT_EPOCH":1607,"BSTAR":0,"MEAN_MOTION_DOT":-4.88e-6,"MEAN_MOTION_DDOT":0},{"OBJECT_NAME":"OVZON-3","OBJECT_ID":"2024-003A","EPOCH":"2026-03-02T12:41:16.718208","MEAN_MOTION":1.00273743,"ECCENTRICITY":1.39e-5,"INCLINATION":0.0144,"RA_OF_ASC_NODE":152.6879,"ARG_OF_PERICENTER":172.4278,"MEAN_ANOMALY":85.1763,"EPHEMERIS_TYPE":0,"CLASSIFICATION_TYPE":"U","NORAD_CAT_ID":58698,"ELEMENT_SET_NO":999,"REV_AT_EPOCH":637,"BSTAR":0,"MEAN_MOTION_DOT":3.4e-7,"MEAN_MOTION_DDOT":0},{"OBJECT_NAME":"FALCON 9 R/B","OBJECT_ID":"2024-003B","EPOCH":"2026-03-02T15:46:00.917184","MEAN_MOTION":1.74297814,"ECCENTRICITY":0.7721801,"INCLINATION":26.3826,"RA_OF_ASC_NODE":83.8025,"ARG_OF_PERICENTER":171.4523,"MEAN_ANOMALY":221.3117,"EPHEMERIS_TYPE":0,"CLASSIFICATION_TYPE":"U","NORAD_CAT_ID":58699,"ELEMENT_SET_NO":999,"REV_AT_EPOCH":1334,"BSTAR":0.00055456,"MEAN_MOTION_DOT":1.057e-5,"MEAN_MOTION_DDOT":0},{"OBJECT_NAME":"INSAT-3DS","OBJECT_ID":"2024-033A","EPOCH":"2026-03-02T16:13:03.916128","MEAN_MOTION":1.00270355,"ECCENTRICITY":0.0002309,"INCLINATION":0.06,"RA_OF_ASC_NODE":265.4797,"ARG_OF_PERICENTER":89.0478,"MEAN_ANOMALY":131.2531,"EPHEMERIS_TYPE":0,"CLASSIFICATION_TYPE":"U","NORAD_CAT_ID":58990,"ELEMENT_SET_NO":999,"REV_AT_EPOCH":4600,"BSTAR":0,"MEAN_MOTION_DOT":-1.72e-6,"MEAN_MOTION_DDOT":0},{"OBJECT_NAME":"MERAH PUTIH 2","OBJECT_ID":"2024-035A","EPOCH":"2026-03-02T17:23:38.722272","MEAN_MOTION":1.00271761,"ECCENTRICITY":0.0001058,"INCLINATION":0.0119,"RA_OF_ASC_NODE":158.7999,"ARG_OF_PERICENTER":189.914,"MEAN_ANOMALY":185.6378,"EPHEMERIS_TYPE":0,"CLASSIFICATION_TYPE":"U","NORAD_CAT_ID":58995,"ELEMENT_SET_NO":999,"REV_AT_EPOCH":752,"BSTAR":0,"MEAN_MOTION_DOT":-3.74e-6,"MEAN_MOTION_DDOT":0},{"OBJECT_NAME":"FALCON 9 R/B","OBJECT_ID":"2024-035B","EPOCH":"2026-03-02T11:42:43.421184","MEAN_MOTION":1.39761137,"ECCENTRICITY":0.80312617,"INCLINATION":18.8893,"RA_OF_ASC_NODE":119.3792,"ARG_OF_PERICENTER":118.0284,"MEAN_ANOMALY":341.0277,"EPHEMERIS_TYPE":0,"CLASSIFICATION_TYPE":"U","NORAD_CAT_ID":58996,"ELEMENT_SET_NO":999,"REV_AT_EPOCH":1031,"BSTAR":0.0008163339,"MEAN_MOTION_DOT":7.95e-6,"MEAN_MOTION_DDOT":0},{"OBJECT_NAME":"TJS-11","OBJECT_ID":"2024-037A","EPOCH":"2026-03-02T21:38:27.015648","MEAN_MOTION":1.00274694,"ECCENTRICITY":0.0005756,"INCLINATION":4.3417,"RA_OF_ASC_NODE":325.784,"ARG_OF_PERICENTER":39.5509,"MEAN_ANOMALY":240.2619,"EPHEMERIS_TYPE":0,"CLASSIFICATION_TYPE":"U","NORAD_CAT_ID":59020,"ELEMENT_SET_NO":999,"REV_AT_EPOCH":751,"BSTAR":0,"MEAN_MOTION_DOT":-3.84e-6,"MEAN_MOTION_DDOT":0},{"OBJECT_NAME":"HULIANWAN GAOGUI-01 (HG-01)","OBJECT_ID":"2024-040A","EPOCH":"2026-03-02T17:41:43.407744","MEAN_MOTION":1.00273246,"ECCENTRICITY":0.0004341,"INCLINATION":0.0598,"RA_OF_ASC_NODE":317.0221,"ARG_OF_PERICENTER":39.0763,"MEAN_ANOMALY":103.522,"EPHEMERIS_TYPE":0,"CLASSIFICATION_TYPE":"U","NORAD_CAT_ID":59069,"ELEMENT_SET_NO":999,"REV_AT_EPOCH":626,"BSTAR":0,"MEAN_MOTION_DOT":1.39e-6,"MEAN_MOTION_DDOT":0},{"OBJECT_NAME":"EUTELSAT 36D","OBJECT_ID":"2024-059A","EPOCH":"2026-03-02T17:42:28.335744","MEAN_MOTION":1.00269961,"ECCENTRICITY":3.17e-5,"INCLINATION":0.0129,"RA_OF_ASC_NODE":136.6074,"ARG_OF_PERICENTER":175.1047,"MEAN_ANOMALY":150.2665,"EPHEMERIS_TYPE":0,"CLASSIFICATION_TYPE":"U","NORAD_CAT_ID":59346,"ELEMENT_SET_NO":999,"REV_AT_EPOCH":708,"BSTAR":0,"MEAN_MOTION_DOT":1.39e-6,"MEAN_MOTION_DDOT":0},{"OBJECT_NAME":"FALCON 9 R/B","OBJECT_ID":"2024-059B","EPOCH":"2026-02-26T10:39:59.431968","MEAN_MOTION":2.24395803,"ECCENTRICITY":0.7370314,"INCLINATION":23.4821,"RA_OF_ASC_NODE":214.0766,"ARG_OF_PERICENTER":47.955,"MEAN_ANOMALY":354.5557,"EPHEMERIS_TYPE":0,"CLASSIFICATION_TYPE":"U","NORAD_CAT_ID":59347,"ELEMENT_SET_NO":999,"REV_AT_EPOCH":893,"BSTAR":0.000956,"MEAN_MOTION_DOT":0.01382462,"MEAN_MOTION_DDOT":-4.2148e-6},{"OBJECT_NAME":"PAKSAT-MM1","OBJECT_ID":"2024-104A","EPOCH":"2026-03-02T04:01:40.670976","MEAN_MOTION":1.0026986,"ECCENTRICITY":0.00030028,"INCLINATION":0.0078,"RA_OF_ASC_NODE":133.5479,"ARG_OF_PERICENTER":201.1206,"MEAN_ANOMALY":283.9197,"EPHEMERIS_TYPE":0,"CLASSIFICATION_TYPE":"U","NORAD_CAT_ID":59915,"ELEMENT_SET_NO":999,"REV_AT_EPOCH":645,"BSTAR":0,"MEAN_MOTION_DOT":1.36e-6,"MEAN_MOTION_DDOT":0},{"OBJECT_NAME":"TITAN 3C TRANSTAGE DEB","OBJECT_ID":"1968-081AL","EPOCH":"2026-02-24T15:50:16.712160","MEAN_MOTION":1.02046516,"ECCENTRICITY":0.01034621,"INCLINATION":1.9541,"RA_OF_ASC_NODE":55.2725,"ARG_OF_PERICENTER":246.8901,"MEAN_ANOMALY":112.482,"EPHEMERIS_TYPE":0,"CLASSIFICATION_TYPE":"U","NORAD_CAT_ID":59978,"ELEMENT_SET_NO":999,"REV_AT_EPOCH":2866,"BSTAR":0,"MEAN_MOTION_DOT":3.1e-7,"MEAN_MOTION_DDOT":0},{"OBJECT_NAME":"TITAN 3C TRANSTAGE DEB","OBJECT_ID":"1968-081AP","EPOCH":"2026-02-24T12:34:22.858752","MEAN_MOTION":1.00903601,"ECCENTRICITY":0.02394127,"INCLINATION":2.1517,"RA_OF_ASC_NODE":46.8618,"ARG_OF_PERICENTER":257.344,"MEAN_ANOMALY":264.2268,"EPHEMERIS_TYPE":0,"CLASSIFICATION_TYPE":"U","NORAD_CAT_ID":59981,"ELEMENT_SET_NO":999,"REV_AT_EPOCH":5972,"BSTAR":0,"MEAN_MOTION_DOT":-1.0e-7,"MEAN_MOTION_DDOT":0},{"OBJECT_NAME":"TITAN 3C TRANSTAGE DEB","OBJECT_ID":"1968-081AR","EPOCH":"2026-02-23T04:43:53.015232","MEAN_MOTION":1.02072056,"ECCENTRICITY":0.02104643,"INCLINATION":2.4491,"RA_OF_ASC_NODE":58.6146,"ARG_OF_PERICENTER":8.6022,"MEAN_ANOMALY":352.1275,"EPHEMERIS_TYPE":0,"CLASSIFICATION_TYPE":"U","NORAD_CAT_ID":59983,"ELEMENT_SET_NO":999,"REV_AT_EPOCH":679,"BSTAR":0,"MEAN_MOTION_DOT":4.3e-7,"MEAN_MOTION_DDOT":0}]
